MALLIGYONG-1            
1 58400U 23179A   24161.55055044  .00007807  00000+0  35532-3 0  9993
2 58400  97.4045  48.5313 0001747 155.7982 204.3336 15.20975187 30568
